NORAD_CAT_ID,OBJECT_NAME,OBJECT_TYPE,EPOCH,MEAN_MOTION,ECCENTRICITY,INCLINATION,RA_OF_ASC_NODE,ARG_OF_PERICENTER,MEAN_ANOMALY,BSTAR,MEAN_MOTION_DOT,MEAN_MOTION_DDOT,TLE_LINE0,TLE_LINE1,TLE_LINE2,SEMIMAJOR_AXIS,PERIOD,APOGEE,PERIGEE,DECAYED
50203.0,STARLINK-3257,PAYLOAD,2022-05-03 14:00:01,15.08844582,0.0002047,53.2189,71.3682,48.6565,201.5607,0.001297,0.00020417,0.0,0 STARLINK-3257,1 50203U 21125AZ  22123.58334491  .00020417  00000-0  12970-2 0  9993,2 50203  53.2189  71.3682 0002047  48.6565 201.5607 15.08844582  3564,6917.866,95.437,541.1469999999998,538.315,0.0
50203.0,STARLINK-3257,PAYLOAD,2022-05-03 22:00:00,15.08872485,0.0001938,53.2207,69.8704,53.4456,208.3754,-0.0029402,-0.0004682,0.0,0 STARLINK-3257,1 50203U 21125AZ  22123.91667824 -.00046820  00000-0 -29402-2 0  9995,2 50203  53.2207  69.8704 0001938  53.4456 208.3754 15.08872485  3564,6917.781,95.435,540.987,538.305,0.0
50203.0,STARLINK-3257,PAYLOAD,2022-05-04 06:00:02,15.08820693,0.0002079,53.2205,68.3757,47.1785,226.3272,0.0030766,0.00048991,0.0,0 STARLINK-3257,1 50203U 21125AZ  22124.25002315  .00048991  00000-0  30766-2 0  9995,2 50203  53.2205  68.3757 0002079  47.1785 226.3272 15.08820693 21475,6917.939,95.439,541.243,538.366,0.0
50203.0,STARLINK-3257,PAYLOAD,2022-05-04 14:00:01,15.08856136,0.0001876,53.2206,66.878,50.6562,234.3801,-0.0004347,-7.203e-05,0.0,0 STARLINK-3257,1 50203U 21125AZ  22124.58334491 -.00007203  00000-0 -43470-3 0  9994,2 50203  53.2206  66.8780 0001876  50.6562 234.3801 15.08856136  3604,6917.831,95.437,540.994,538.398,0.0
50203.0,STARLINK-3257,PAYLOAD,2022-05-04 20:00:01,15.08865541,0.0001807,53.2208,65.7555,54.6212,149.1844,-0.0013375,-0.00021526,0.0,0 STARLINK-3257,1 50203U 21125AZ  22124.83335648 -.00021526  00000-0 -13375-2 0  9991,2 50203  53.2208  65.7555 0001807  54.6212 149.1844 15.08865541 21569,6917.802,95.436,540.9169999999998,538.4169999999998,0.0
50203.0,STARLINK-3257,PAYLOAD,2022-05-04 22:00:01,15.08867947,0.0001808,53.2208,65.3819,53.1108,243.5985,-0.0020936,-0.00033479,0.0,0 STARLINK-3257,1 50203U 21125AZ  22124.91668981 -.00033479  00000-0 -20936-2 0  9990,2 50203  53.2208  65.3819 0001808  53.1108 243.5985 15.08867947  3609,6917.795,95.436,540.911,538.409,0.0
50203.0,STARLINK-3257,PAYLOAD,2022-05-05 14:00:01,15.08829062,0.0001733,53.2204,62.3894,49.7379,270.1285,3.5992e-05,2.85e-06,0.0,0 STARLINK-3257,1 50203U 21125AZ  22125.58334491  .00000285  00000-0  35992-4 0  9997,2 50203  53.2204  62.3894 0001733  49.7379 270.1285 15.08829062  3563,6917.9140000000025,95.438,540.9780000000002,538.58,0.0
50203.0,STARLINK-3257,PAYLOAD,2022-05-05 22:00:00,15.08846028,0.0001766,53.2204,60.8935,53.1841,278.2576,-0.0029458,-0.00046874,0.0,0 STARLINK-3257,1 50203U 21125AZ  22125.91667824 -.00046874  00000-0 -29458-2 0  9997,2 50203  53.2204  60.8935 0001766  53.1841 278.2576 15.08846028 21722,6917.861999999999,95.437,540.9490000000002,538.505,0.0
50203.0,STARLINK-3257,PAYLOAD,2022-05-06 14:00:01,15.08816224,0.0001799,53.2198,57.9009,54.2816,300.3143,0.0013373,0.00021045,0.0,0 STARLINK-3257,1 50203U 21125AZ  22126.58334491  .00021045  00000-0  13373-2 0  9992,2 50203  53.2198  57.9009 0001799  54.2816 300.3143 15.08816224 21837,6917.953,95.439,541.063,538.5740000000002,0.0
50203.0,STARLINK-3257,PAYLOAD,2022-05-07 14:00:01,15.08828133,0.0001763,53.2194,53.4121,54.7663,334.6046,0.0003475,5.245e-05,0.0,0 STARLINK-3257,1 50203U 21125AZ  22127.58334491  .00005245  00000-0  34750-3 0  9990,2 50203  53.2194  53.4121 0001763  54.7663 334.6046 15.08828133 21985,6917.917,95.438,541.001,538.562,0.0
50203.0,STARLINK-3257,PAYLOAD,2022-05-07 22:00:00,15.0885288,0.0001824,53.2196,51.9164,55.1432,345.8051,-0.0011267,-0.00018181,0.0,0 STARLINK-3257,1 50203U 21125AZ  22127.91667824 -.00018181  00000-0 -11267-2 0  9998,2 50203  53.2196  51.9164 0001824  55.1432 345.8051 15.08852880  3609,6917.840999999999,95.437,540.9680000000002,538.444,0.0
50203.0,STARLINK-3257,PAYLOAD,2022-05-08 14:00:01,15.08822842,0.0001729,53.2195,48.9231,53.3291,10.8268,0.00078035,0.00012147,0.0,0 STARLINK-3257,1 50203U 21125AZ  22128.58334491  .00012147  00000-0  78035-3 0  9994,2 50203  53.2195  48.9231 0001729  53.3291  10.8268 15.08822842  3600,6917.933000000001,95.439,540.994,538.602,0.0
50203.0,STARLINK-3257,PAYLOAD,2022-05-08 22:00:00,15.08852927,0.0001825,53.2197,47.4274,53.44,22.2934,-0.001233,-0.00019865,0.0,0 STARLINK-3257,1 50203U 21125AZ  22128.91667824 -.00019865  00000-0 -12330-2 0  9991,2 50203  53.2197  47.4274 0001825  53.4400  22.2934 15.08852927 22181,6917.840999999999,95.437,540.9680000000002,538.443,0.0
50203.0,STARLINK-3257,PAYLOAD,2022-05-09 14:00:01,15.08824893,0.0001705,53.2199,44.434,51.9349,47.0783,0.0014132,0.00022265,0.0,0 STARLINK-3257,1 50203U 21125AZ  22129.58335648  .00022265  00000-0  14132-2 0  9999,2 50203  53.2199  44.4340 0001705  51.9349  47.0783 15.08824893  3600,6917.927,95.439,540.971,538.612,0.0
50203.0,STARLINK-3257,PAYLOAD,2022-05-09 22:00:00,15.08859097,0.0001805,53.2202,42.9385,51.5473,58.9879,-0.0010880999999999,-0.00017573,0.0,0 STARLINK-3257,1 50203U 21125AZ  22129.91667824 -.00017573  00000-0 -10881-2 0  9995,2 50203  53.2202  42.9385 0001805  51.5473  58.9879 15.08859097  3591,6917.821999999999,95.436,540.936,538.438,0.0
50203.0,STARLINK-3257,PAYLOAD,2022-05-10 00:00:00,15.08853979,0.0001855,53.2201,42.5649,49.6553,153.7845,-0.00071006,-0.00011575,0.0,0 STARLINK-3257,1 50203U 21125AZ  22130.00001157 -.00011575  00000-0 -71006-3 0  9991,2 50203  53.2201  42.5649 0001855  49.6553 153.7845 15.08853979 22345,6917.8380000000025,95.437,540.986,538.419,0.0
50203.0,STARLINK-3257,PAYLOAD,2022-05-10 14:00:01,15.08825247,0.0001715,53.2204,39.945,51.1131,82.6326,0.00032195,4.837e-05,0.0,0 STARLINK-3257,1 50203U 21125AZ  22130.58334491  .00004837  00000-0  32195-3 0  9991,2 50203  53.2204  39.9450 0001715  51.1131  82.6326 15.08825247  3602,6917.925,95.438,540.977,538.604,0.0
50203.0,STARLINK-3257,PAYLOAD,2022-05-10 18:00:00,15.08830388,0.0001781,53.2208,39.1968,54.7923,264.7399,-0.00056689,-9.297e-05,0.0,0 STARLINK-3257,1 50203U 21125AZ  22130.75001157 -.00009297  00000-0 -56689-3 0  9991,2 50203  53.2208  39.1968 0001781  54.7923 264.7399 15.08830388  3585,6917.91,95.438,541.007,538.543,0.0
50203.0,STARLINK-3257,PAYLOAD,2022-05-11 22:00:00,15.0885319,0.0001918,53.2212,33.9612,53.984,126.0732,-0.0010825,-0.00017481,0.0,0 STARLINK-3257,1 50203U 21125AZ  22131.91667824 -.00017481  00000-0 -10825-2 0  9994,2 50203  53.2212  33.9612 0001918  53.9840 126.0732 15.08853190 22633,6917.84,95.437,541.0319999999998,538.378,0.0
50203.0,STARLINK-3257,PAYLOAD,2022-05-12 14:00:01,15.08820245,0.0001710999999999,53.2209,30.9676,55.0642,148.2171,0.0028023,0.00044569,0.0,0 STARLINK-3257,1 50203U 21125AZ  22132.58334491  .00044569  00000-0  28023-2 0  9993,2 50203  53.2209  30.9676 0001711  55.0642 148.2171 15.08820245  1309,6917.941,95.439,540.989,538.622,0.0
50203.0,STARLINK-3257,PAYLOAD,2022-05-12 20:00:01,15.08864938,0.0001771,53.2212,29.8462,55.6724,66.2971,-0.0007899,-0.00012846,0.0,0 STARLINK-3257,1 50203U 21125AZ  22132.83334491 -.00012846  00000-0 -78990-3 0  9995,2 50203  53.2212  29.8462 0001771  55.6724  66.2971 15.08864938 22774,6917.804,95.436,540.894,538.444,0.0
50203.0,STARLINK-3257,PAYLOAD,2022-05-12 22:00:00,15.08861622,0.0001811,53.2211,29.4728,53.5153,161.3603,-0.0005731,-9.403e-05,0.0,0 STARLINK-3257,1 50203U 21125AZ  22132.91667824 -.00009403  00000-0 -57310-3 0  9991,2 50203  53.2211  29.4728 0001811  53.5153 161.3603 15.08861622  1304,6917.814,95.436,540.932,538.4259999999998,0.0
50203.0,STARLINK-3257,PAYLOAD,2022-05-13 14:00:01,15.08823403,0.0001561999999999,53.2206,26.4791,53.9762,184.1324,0.00052126,8.014e-05,0.0,0 STARLINK-3257,1 50203U 21125AZ  22133.58334491  .00008014  00000-0  52126-3 0  9991,2 50203  53.2206  26.4791 0001562  53.9762 184.1324 15.08823403  1306,6917.931,95.439,540.877,538.716,0.0
50203.0,STARLINK-3257,PAYLOAD,2022-05-13 22:00:00,15.08832236,0.000166,53.2207,24.9844,50.7244,198.9649,-0.00061741,-0.00010099,0.0,0 STARLINK-3257,1 50203U 21125AZ  22133.91667824 -.00010099  00000-0 -61741-3 0  9998,2 50203  53.2207  24.9844 0001660  50.7244 198.9649 15.08832236 22937,6917.904,95.438,540.9169999999998,538.621,0.0
50203.0,STARLINK-3257,PAYLOAD,2022-05-14 14:00:01,15.08803267,0.0001654,53.2202,21.9906,57.3108,215.5654,0.0037668,0.00060112,0.0,0 STARLINK-3257,1 50203U 21125AZ  22134.58334491  .00060112  00000-0  37668-2 0  9992,2 50203  53.2202  21.9906 0001654  57.3108 215.5654 15.08803267  1305,6917.993,95.44,541.002,538.7130000000002,0.0
50203.0,STARLINK-3257,PAYLOAD,2022-05-14 22:00:00,15.08845486,0.0001781999999999,53.2202,20.4961,53.6746,230.7784,-0.00013824,-2.488e-05,0.0,0 STARLINK-3257,1 50203U 21125AZ  22134.91667824 -.00002488  00000-0 -13824-3 0  9991,2 50203  53.2202  20.4961 0001782  53.6746 230.7784 15.08845486 23080,6917.864000000001,95.437,540.961,538.496,0.0
50203.0,STARLINK-3257,PAYLOAD,2022-05-15 14:00:01,15.08810695,0.0001536,53.2199,17.5019,54.347,253.3873,0.002037,0.00032254,0.0,0 STARLINK-3257,1 50203U 21125AZ  22135.58335648  .00032254  00000-0  20370-2 0  9996,2 50203  53.2199  17.5019 0001536  54.3470 253.3873 15.08810695  1300,6917.97,95.439,540.898,538.7719999999998,0.0
50203.0,STARLINK-3257,PAYLOAD,2022-05-15 22:00:00,15.0883476,0.0001689,53.2199,16.0074,49.5556,269.6903,9.4673e-05,1.219e-05,0.0,0 STARLINK-3257,1 50203U 21125AZ  22135.91667824  .00001219  00000-0  94673-4 0  9993,2 50203  53.2199  16.0074 0001689  49.5556 269.6903 15.08834760  1308,6917.896,95.438,540.93,538.5930000000002,0.0
50203.0,STARLINK-3257,PAYLOAD,2022-05-16 06:00:02,15.08864007,0.0001737,53.2197,14.5109,47.3588,283.5295,-0.003538,-0.00056194,0.0,0 STARLINK-3257,1 50203U 21125AZ  22136.25002315 -.00056194  00000-0 -35380-2 0  9991,2 50203  53.2197  14.5109 0001737  47.3588 283.5295 15.08864007 23280,6917.807,95.436,540.874,538.47,0.0
